start=new Date('2021-12-05T00:00:00.000Z').valueOf();
sats=[{"CLASSIFICATION_TYPE":"U","REV_AT_EPOCH":"6980","TLE_LINE2":"2 46333  53.0534 161.1335 0002364  87.2872 272.8387 15.06388583 69807","INCLINATION":"53.0534","REF_FRAME":"TEME","CENTER_NAME":"EARTH","MEAN_MOTION_DDOT":"0.0000000000000","TLE_LINE1":"1 46333U 20062J   21338.83404283 -.00001250  00000-0 -65020-4 0  9995","ARG_OF_PERICENTER":"87.2872","ECCENTRICITY":"0.00023640","APOAPSIS":"548.886","COUNTRY_CODE":"US","RA_OF_ASC_NODE":"161.1335","LAUNCH_DATE":"2020-09-03","GP_ID":"191103172","SITE":"AFETR","FILE":"3232651","MEAN_MOTION":"15.06388583","SEMIMAJOR_AXIS":"6925.384","ELEMENT_SET_NO":"999","MEAN_MOTION_DOT":"-0.00001250","NORAD_CAT_ID":"46333","OBJECT_NAME":"STARLINK-1723","MEAN_ANOMALY":"272.8387","PERIOD":"95.593","OBJECT_ID":"2020-062J","OBJECT_TYPE":"PAYLOAD","DECAY_DATE":null,"EPHEMERIS_TYPE":"0","EPOCH":"2021-12-04T20:01:01.300512","MEAN_ELEMENT_THEORY":"SGP4","TIME_SYSTEM":"UTC","RCS_SIZE":"LARGE","BSTAR":"-0.00006502000000","PERIAPSIS":"545.611"},{"OBJECT_ID":"2020-062K","PERIOD":"95.592","OBJECT_TYPE":"PAYLOAD","MEAN_ANOMALY":"269.3524","OBJECT_NAME":"STARLINK-1725","NORAD_CAT_ID":"46334","PERIAPSIS":"545.931","BSTAR":"0.00008795800000","RCS_SIZE":"LARGE","TIME_SYSTEM":"UTC","MEAN_ELEMENT_THEORY":"SGP4","EPOCH":"2021-12-04T17:49:37.341120","DECAY_DATE":null,"EPHEMERIS_TYPE":"0","ECCENTRICITY":"0.00018190","ARG_OF_PERICENTER":"90.7674","MEAN_MOTION_DDOT":"0.0000000000000","TLE_LINE1":"1 46334U 20062K   21338.74279330  .00001029  00000-0  87958-4 0  9995","REF_FRAME":"TEME","CENTER_NAME":"EARTH","INCLINATION":"53.0534","TLE_LINE2":"2 46334  53.0534 141.5288 0001819  90.7674 269.3524 15.06407540 70070","REV_AT_EPOCH":"7007","CLASSIFICATION_TYPE":"U","MEAN_MOTION_DOT":"0.00001029","ELEMENT_SET_NO":"999","SEMIMAJOR_AXIS":"6925.325","FILE":"3232651","MEAN_MOTION":"15.06407540","SITE":"AFETR","GP_ID":"191103923","LAUNCH_DATE":"2020-09-03","COUNTRY_CODE":"US","RA_OF_ASC_NODE":"141.5288","APOAPSIS":"548.450"},{"OBJECT_TYPE":"PAYLOAD","PERIOD":"95.603","OBJECT_ID":"2020-062L","MEAN_ANOMALY":"277.7401","OBJECT_NAME":"STARLINK-1727","NORAD_CAT_ID":"46335","PERIAPSIS":"545.579","BSTAR":"0.00225120000000","TIME_SYSTEM":"UTC","RCS_SIZE":"LARGE","MEAN_ELEMENT_THEORY":"SGP4","EPOCH":"2021-12-04T19:07:59.807136","EPHEMERIS_TYPE":"0","DECAY_DATE":null,"ECCENTRICITY":"0.00031100","ARG_OF_PERICENTER":"82.3941","TLE_LINE1":"1 46335U 20062L   21338.79721999  .00033257  00000-0  22512-2 0  9995","MEAN_MOTION_DDOT":"0.0000000000000","CENTER_NAME":"EARTH","REF_FRAME":"TEME","INCLINATION":"53.0550","REV_AT_EPOCH":"6980","TLE_LINE2":"2 46335  53.0550 161.2848 0003110  82.3941 277.7401 15.06230580 69804","CLASSIFICATION_TYPE":"U","MEAN_MOTION_DOT":"0.00033257","ELEMENT_SET_NO":"999","MEAN_MOTION":"15.06230580","FILE":"3232651","SEMIMAJOR_AXIS":"6925.868","SITE":"AFETR","GP_ID":"191104174","LAUNCH_DATE":"2020-09-03","RA_OF_ASC_NODE":"161.2848","COUNTRY_CODE":"US","APOAPSIS":"549.887"},{"BSTAR":"-0.00001309700000","PERIAPSIS":"545.860","DECAY_DATE":null,"EPHEMERIS_TYPE":"0","EPOCH":"2021-12-04T17:19:08.017248","MEAN_ELEMENT_THEORY":"SGP4","RCS_SIZE":"LARGE","TIME_SYSTEM":"UTC","PERIOD":"95.593","OBJECT_ID":"2020-062M","OBJECT_TYPE":"PAYLOAD","NORAD_CAT_ID":"46336","OBJECT_NAME":"STARLINK-1738","MEAN_ANOMALY":"269.4269","LAUNCH_DATE":"2020-09-03","GP_ID":"191102922","SITE":"AFETR","FILE":"3232651","MEAN_MOTION":"15.06393634","SEMIMAJOR_AXIS":"6925.368","ELEMENT_SET_NO":"999","MEAN_MOTION_DOT":"-0.00000477","APOAPSIS":"548.606","COUNTRY_CODE":"US","RA_OF_ASC_NODE":"141.6376","MEAN_MOTION_DDOT":"0.0000000000000","TLE_LINE1":"1 46336U 20062M   21338.72162057 -.00000477  00000-0 -13097-4 0  9993","ARG_OF_PERICENTER":"90.6948","ECCENTRICITY":"0.00019830","CLASSIFICATION_TYPE":"U","REV_AT_EPOCH":"7006","TLE_LINE2":"2 46336  53.0542 141.6376 0001983  90.6948 269.4269 15.06393634 70069","INCLINATION":"53.0542","REF_FRAME":"TEME","CENTER_NAME":"EARTH"},{"OBJECT_ID":"2020-062N","PERIOD":"95.593","OBJECT_TYPE":"PAYLOAD","NORAD_CAT_ID":"46337","OBJECT_NAME":"STARLINK-1750","MEAN_ANOMALY":"266.6939","BSTAR":"0.00005493200000","PERIAPSIS":"545.735","DECAY_DATE":null,"EPHEMERIS_TYPE":"0","EPOCH":"2021-12-04T20:51:27.258336","MEAN_ELEMENT_THEORY":"SGP4","RCS_SIZE":"LARGE","TIME_SYSTEM":"UTC","MEAN_MOTION_DDOT":"0.0000000000000","TLE_LINE1":"1 46337U 20062N   21338.86906549  .00000536  00000-0  54932-4 0  9998","ARG_OF_PERICENTER":"93.4298","ECCENTRICITY":"0.00021740","CLASSIFICATION_TYPE":"U","REV_AT_EPOCH":"7009","TLE_LINE2":"2 46337  53.0529 140.9618 0002174  93.4298 266.6939 15.06391180 70098","INCLINATION":"53.0529","REF_FRAME":"TEME","CENTER_NAME":"EARTH","GP_ID":"191102673","LAUNCH_DATE":"2020-09-03","SITE":"AFETR","SEMIMAJOR_AXIS":"6925.376","FILE":"3232651","MEAN_MOTION":"15.06391180","ELEMENT_SET_NO":"999","MEAN_MOTION_DOT":"0.00000536","APOAPSIS":"548.746","COUNTRY_CODE":"US","RA_OF_ASC_NODE":"140.9618"},{"NORAD_CAT_ID":"46338","OBJECT_NAME":"STARLINK-1752","MEAN_ANOMALY":"277.8086","OBJECT_TYPE":"PAYLOAD","OBJECT_ID":"2020-062P","PERIOD":"95.593","EPHEMERIS_TYPE":"0","DECAY_DATE":null,"EPOCH":"2021-12-04T18:52:00.741216","MEAN_ELEMENT_THEORY":"SGP4","RCS_SIZE":"LARGE","TIME_SYSTEM":"UTC","BSTAR":"0.00005895000000","PERIAPSIS":"545.878","CLASSIFICATION_TYPE":"U","TLE_LINE2":"2 46338  53.0543 161.3294 0001959  82.3125 277.8086 15.06393153 69792","REV_AT_EPOCH":"6979","INCLINATION":"53.0543","CENTER_NAME":"EARTH","REF_FRAME":"TEME","TLE_LINE1":"1 46338U 20062P   21338.78611969  .00000596  00000-0  58950-4 0  9999","MEAN_MOTION_DDOT":"0.0000000000000","ARG_OF_PERICENTER":"82.3125","ECCENTRICITY":"0.00019590","APOAPSIS":"548.591","COUNTRY_CODE":"US","RA_OF_ASC_NODE":"161.3294","GP_ID":"191103424","LAUNCH_DATE":"2020-09-03","SITE":"AFETR","SEMIMAJOR_AXIS":"6925.370","FILE":"3232651","MEAN_MOTION":"15.06393153","ELEMENT_SET_NO":"999","MEAN_MOTION_DOT":"0.00000596"},{"PERIAPSIS":"142.700","BSTAR":"0.00125150000000","MEAN_ELEMENT_THEORY":"SGP4","TIME_SYSTEM":"UTC","RCS_SIZE":"LARGE","EPHEMERIS_TYPE":"0","DECAY_DATE":null,"EPOCH":"2021-12-04T06:58:45.450048","OBJECT_TYPE":"PAYLOAD","PERIOD":"87.613","OBJECT_ID":"2020-062Q","MEAN_ANOMALY":"198.9472","NORAD_CAT_ID":"46339","OBJECT_NAME":"STARLINK-1757","ELEMENT_SET_NO":"999","MEAN_MOTION_DOT":"0.48380163","LAUNCH_DATE":"2020-09-03","GP_ID":"191046373","SITE":"AFETR","SEMIMAJOR_AXIS":"6534.389","FILE":"3232160","MEAN_MOTION":"16.43596696","APOAPSIS":"169.809","COUNTRY_CODE":"US","RA_OF_ASC_NODE":"91.6072","ECCENTRICITY":"0.00207430","TLE_LINE1":"1 46339U 20062Q   21338.29080382  .48380163  12149-4  12515-2 0  9994","MEAN_MOTION_DDOT":"0.0000121490000","ARG_OF_PERICENTER":"161.8695","INCLINATION":"53.0241","CENTER_NAME":"EARTH","REF_FRAME":"TEME","CLASSIFICATION_TYPE":"U","REV_AT_EPOCH":"7091","TLE_LINE2":"2 46339  53.0241  91.6072 0020743 161.8695 198.9472 16.43596696 70911"},{"PERIOD":"95.593","OBJECT_ID":"2020-062R","OBJECT_TYPE":"PAYLOAD","OBJECT_NAME":"STARLINK-1759","NORAD_CAT_ID":"46340","MEAN_ANOMALY":"270.6858","BSTAR":"0.00007033000000","PERIAPSIS":"545.862","EPOCH":"2021-12-04T19:49:03.308736","DECAY_DATE":null,"EPHEMERIS_TYPE":"0","TIME_SYSTEM":"UTC","RCS_SIZE":"LARGE","MEAN_ELEMENT_THEORY":"SGP4","ARG_OF_PERICENTER":"89.4358","MEAN_MOTION_DDOT":"0.0000000000000","TLE_LINE1":"1 46340U 20062R   21338.82573274  .00000766  00000-0  70330-4 0  9998","ECCENTRICITY":"0.00019830","TLE_LINE2":"2 46340  53.0525 161.1584 0001983  89.4358 270.6858 15.06392759 69809","REV_AT_EPOCH":"6980","CLASSIFICATION_TYPE":"U","REF_FRAME":"TEME","CENTER_NAME":"EARTH","INCLINATION":"53.0525","MEAN_MOTION":"15.06392759","FILE":"3232651","SEMIMAJOR_AXIS":"6925.371","LAUNCH_DATE":"2020-09-03","GP_ID":"191103675","SITE":"AFETR","MEAN_MOTION_DOT":"0.00000766","ELEMENT_SET_NO":"999","RA_OF_ASC_NODE":"161.1584","COUNTRY_CODE":"US","APOAPSIS":"548.609"},{"OBJECT_TYPE":"PAYLOAD","PERIOD":"95.592","OBJECT_ID":"2020-062S","NORAD_CAT_ID":"46341","OBJECT_NAME":"STARLINK-1760","MEAN_ANOMALY":"268.7874","BSTAR":"-0.00003315100000","PERIAPSIS":"545.810","EPHEMERIS_TYPE":"0","DECAY_DATE":null,"EPOCH":"2021-12-04T18:22:49.623168","MEAN_ELEMENT_THEORY":"SGP4","TIME_SYSTEM":"UTC","RCS_SIZE":"LARGE","TLE_LINE1":"1 46341U 20062S   21338.76585212 -.00000775  00000-0 -33151-4 0  9999","MEAN_MOTION_DDOT":"0.0000000000000","ARG_OF_PERICENTER":"91.3349","ECCENTRICITY":"0.00020410","CLASSIFICATION_TYPE":"U","REV_AT_EPOCH":"7008","TLE_LINE2":"2 46341  53.0530 141.4364 0002041  91.3349 268.7874 15.06396876 70083","INCLINATION":"53.0530","CENTER_NAME":"EARTH","REF_FRAME":"TEME","SITE":"AFETR","GP_ID":"191102423","LAUNCH_DATE":"2020-09-03","FILE":"3232651","MEAN_MOTION":"15.06396876","SEMIMAJOR_AXIS":"6925.358","ELEMENT_SET_NO":"999","MEAN_MOTION_DOT":"-0.00000775","APOAPSIS":"548.637","RA_OF_ASC_NODE":"141.4364","COUNTRY_CODE":"US"},{"GP_ID":"191103173","SITE":"AFETR","LAUNCH_DATE":"2020-09-03","FILE":"3232651","SEMIMAJOR_AXIS":"6925.376","MEAN_MOTION":"15.06391045","ELEMENT_SET_NO":"999","MEAN_MOTION_DOT":"-0.00000840","APOAPSIS":"548.713","COUNTRY_CODE":"US","RA_OF_ASC_NODE":"160.9295","MEAN_MOTION_DDOT":"0.0000000000000","TLE_LINE1":"1 46342U 20062T   21338.87827388 -.00000840  00000-0 -37469-4 0  9994","ARG_OF_PERICENTER":"82.3389","ECCENTRICITY":"0.00021260","CLASSIFICATION_TYPE":"U","TLE_LINE2":"2 46342  53.0525 160.9295 0002126  82.3389 277.7842 15.06391045 69812","REV_AT_EPOCH":"6981","INCLINATION":"53.0525","REF_FRAME":"TEME","CENTER_NAME":"EARTH","BSTAR":"-0.00003746900000","PERIAPSIS":"545.769","DECAY_DATE":null,"EPHEMERIS_TYPE":"0","EPOCH":"2021-12-04T21:04:42.863232","MEAN_ELEMENT_THEORY":"SGP4","TIME_SYSTEM":"UTC","RCS_SIZE":"LARGE","OBJECT_ID":"2020-062T","PERIOD":"95.593","OBJECT_TYPE":"PAYLOAD","NORAD_CAT_ID":"46342","OBJECT_NAME":"STARLINK-1762","MEAN_ANOMALY":"277.7842"}];
